{
  "type": "FeatureCollection",
  "features": [
    { "type": "Feature", "properties": { "name": "LOT-01" }, "geometry": { "type": "Polygon", "coordinates": [[[-70.8488,-34.4676],[-70.8472,-34.4676],[-70.8472,-34.4688],[-70.8488,-34.4688],[-70.8488,-34.4676]]] } },
    { "type": "Feature", "properties": { "name": "LOT-02" }, "geometry": { "type": "Polygon", "coordinates": [[[-70.8472,-34.4676],[-70.8457,-34.4676],[-70.8457,-34.4688],[-70.8472,-34.4688],[-70.8472,-34.4676]]] } },
    { "type": "Feature", "properties": { "name": "LOT-03" }, "geometry": { "type": "Polygon", "coordinates": [[[-70.8457,-34.4676],[-70.8442,-34.4676],[-70.8442,-34.4688],[-70.8457,-34.4688],[-70.8457,-34.4676]]] } },
    { "type": "Feature", "properties": { "name": "LOT-04" }, "geometry": { "type": "Polygon", "coordinates": [[[-70.8488,-34.4688],[-70.8472,-34.4688],[-70.8472,-34.4701],[-70.8488,-34.4701],[-70.8488,-34.4688]]] } },
    { "type": "Feature", "properties": { "name": "LOT-05" }, "geometry": { "type": "Polygon", "coordinates": [[[-70.8472,-34.4688],[-70.8457,-34.4688],[-70.8457,-34.4701],[-70.8472,-34.4701],[-70.8472,-34.4688]]] } },
    { "type": "Feature", "properties": { "name": "LOT-06" }, "geometry": { "type": "Polygon", "coordinates": [[[-70.8457,-34.4688],[-70.8442,-34.4688],[-70.8442,-34.4701],[-70.8457,-34.4701],[-70.8457,-34.4688]]] } },
    { "type": "Feature", "properties": { "name": "LOT-07" }, "geometry": { "type": "Polygon", "coordinates": [[[-70.8488,-34.4701],[-70.8472,-34.4701],[-70.8472,-34.4714],[-70.8488,-34.4714],[-70.8488,-34.4701]]] } },
    { "type": "Feature", "properties": { "name": "LOT-08" }, "geometry": { "type": "Polygon", "coordinates": [[[-70.8472,-34.4701],[-70.8457,-34.4701],[-70.8457,-34.4714],[-70.8472,-34.4714],[-70.8472,-34.4701]]] } },
    { "type": "Feature", "properties": { "name": "LOT-09" }, "geometry": { "type": "Polygon", "coordinates": [[[-70.8457,-34.4701],[-70.8442,-34.4701],[-70.8442,-34.4714],[-70.8457,-34.4714],[-70.8457,-34.4701]]] } },
    { "type": "Feature", "properties": { "name": "LOT-10" }, "geometry": { "type": "Polygon", "coordinates": [[[-70.8488,-34.4714],[-70.8472,-34.4714],[-70.8472,-34.4727],[-70.8488,-34.4727],[-70.8488,-34.4714]]] } },
    { "type": "Feature", "properties": { "name": "LOT-11" }, "geometry": { "type": "Polygon", "coordinates": [[[-70.8472,-34.4714],[-70.8457,-34.4714],[-70.8457,-34.4727],[-70.8472,-34.4727],[-70.8472,-34.4714]]] } },
    { "type": "Feature", "properties": { "name": "LOT-12" }, "geometry": { "type": "Polygon", "coordinates": [[[-70.8457,-34.4714],[-70.8442,-34.4714],[-70.8442,-34.4727],[-70.8457,-34.4727],[-70.8457,-34.4714]]] } },
    { "type": "Feature", "properties": { "name": "LOT-13" }, "geometry": { "type": "Polygon", "coordinates": [[[-70.8488,-34.4727],[-70.8472,-34.4727],[-70.8472,-34.4740],[-70.8488,-34.4740],[-70.8488,-34.4727]]] } },
    { "type": "Feature", "properties": { "name": "LOT-14" }, "geometry": { "type": "Polygon", "coordinates": [[[-70.8472,-34.4727],[-70.8457,-34.4727],[-70.8457,-34.4740],[-70.8472,-34.4740],[-70.8472,-34.4727]]] } },
    { "type": "Feature", "properties": { "name": "LOT-15" }, "geometry": { "type": "Polygon", "coordinates": [[[-70.8457,-34.4727],[-70.8442,-34.4727],[-70.8442,-34.4740],[-70.8457,-34.4740],[-70.8457,-34.4727]]] } },
    { "type": "Feature", "properties": { "name": "LOT-16" }, "geometry": { "type": "Polygon", "coordinates": [[[-70.8488,-34.4740],[-70.8465,-34.4740],[-70.8465,-34.4752],[-70.8488,-34.4752],[-70.8488,-34.4740]]] } },
    { "type": "Feature", "properties": { "name": "LOT-17" }, "geometry": { "type": "Polygon", "coordinates": [[[-70.8465,-34.4740],[-70.8442,-34.4740],[-70.8442,-34.4752],[-70.8465,-34.4752],[-70.8465,-34.4740]]] } }
  ]
}
