{"type":"FeatureCollection","features":[{"type":"Feature","properties":{"name":"LOT-01","number":"01","areaM2":11433,"centroid":[-70.837833,-34.459419]},"geometry":{"type":"Polygon","coordinates":[[[-70.83694000000001,-34.45962],[-70.83838,-34.45993],[-70.83840000000001,-34.459830000000004],[-70.83836000000001,-34.459680000000006],[-70.83832000000001,-34.459500000000006],[-70.8382,-34.459050000000005],[-70.83812,-34.45891],[-70.83677,-34.458980000000004],[-70.83701,-34.459270000000004],[-70.83694000000001,-34.45962]]]},"id":"LOT-01"},{"type":"Feature","properties":{"name":"LOT-02","number":"02","areaM2":6171,"centroid":[-70.837973,-34.461563]},"geometry":{"type":"Polygon","coordinates":[[[-70.83711000000001,-34.46157],[-70.83875,-34.46191],[-70.83882000000001,-34.46155],[-70.83721,-34.461220000000004],[-70.83711000000001,-34.46157]]]},"id":"LOT-02"},{"type":"Feature","properties":{"name":"LOT-03","number":"03","areaM2":6116,"centroid":[-70.838044,-34.461928]},"geometry":{"type":"Polygon","coordinates":[[[-70.83702000000001,-34.461920000000006],[-70.8386,-34.462250000000004],[-70.83874,-34.46199],[-70.83875,-34.46191],[-70.83711000000001,-34.46157],[-70.83702000000001,-34.461920000000006]]]},"id":"LOT-03"},{"type":"Feature","properties":{"name":"LOT-04","number":"04","areaM2":10396,"centroid":[-70.839621,-34.462755]},"geometry":{"type":"Polygon","coordinates":[[[-70.84021,-34.46304],[-70.84027,-34.462900000000005],[-70.84034000000001,-34.46278],[-70.84036,-34.46273],[-70.84036,-34.46264],[-70.84039,-34.46257],[-70.84043000000001,-34.46253],[-70.83840000000001,-34.462520000000005],[-70.83839,-34.46253],[-70.83837000000001,-34.46256],[-70.83826,-34.462880000000006],[-70.83908000000001,-34.46307],[-70.84021,-34.46307],[-70.84021,-34.46304]]]},"id":"LOT-04"},{"type":"Feature","properties":{"name":"LOT-05","number":"05","areaM2":81303,"centroid":[-70.843523,-34.47062]},"geometry":{"type":"Polygon","coordinates":[[[-70.84515,-34.469950000000004],[-70.84496,-34.46978],[-70.84454000000001,-34.469480000000004],[-70.84438,-34.4694],[-70.84397,-34.469170000000005],[-70.84385,-34.46911],[-70.84088000000001,-34.46943],[-70.84064000000001,-34.469460000000005],[-70.84085,-34.47034],[-70.84099,-34.47137],[-70.84147,-34.47131],[-70.84195000000001,-34.47126],[-70.84211,-34.471250000000005],[-70.84212000000001,-34.4712],[-70.84216,-34.471160000000005],[-70.84222000000001,-34.471140000000005],[-70.84228,-34.47115],[-70.84233,-34.47119],[-70.84245,-34.47117],[-70.84295,-34.471120000000006],[-70.84345,-34.471070000000005],[-70.84396000000001,-34.47101],[-70.84446000000001,-34.470960000000005],[-70.84457,-34.47095],[-70.84459000000001,-34.4709],[-70.84464000000001,-34.470870000000005],[-70.8447,-34.470870000000005],[-70.84475,-34.47088],[-70.84479,-34.47092],[-70.84499000000001,-34.4709],[-70.8459,-34.470800000000004],[-70.8459,-34.47077],[-70.84561000000001,-34.47061],[-70.84522000000001,-34.470130000000005],[-70.84515,-34.469950000000004]]]},"id":"LOT-05"},{"type":"Feature","properties":{"name":"LOT-06","number":"06","areaM2":50146,"centroid":[-70.852507,-34.472748]},"geometry":{"type":"Polygon","coordinates":[[[-70.85085000000001,-34.47186],[-70.85154,-34.473870000000005],[-70.85154,-34.47388],[-70.85155,-34.47388],[-70.85155,-34.473890000000004],[-70.85156,-34.473890000000004],[-70.85156,-34.4739],[-70.85157000000001,-34.4739],[-70.85158000000001,-34.4739],[-70.85159,-34.4739],[-70.85247000000001,-34.473690000000005],[-70.85298,-34.47334],[-70.85388,-34.4728],[-70.85389,-34.47279],[-70.85390000000001,-34.47279],[-70.85390000000001,-34.47278],[-70.85390000000001,-34.472770000000004],[-70.85391,-34.472770000000004],[-70.85391,-34.47276],[-70.85390000000001,-34.472750000000005],[-70.85390000000001,-34.47274],[-70.85375,-34.472550000000005],[-70.85362,-34.47232],[-70.85255000000001,-34.4716],[-70.85193000000001,-34.471180000000004],[-70.85181,-34.47108],[-70.85172,-34.47101],[-70.85167000000001,-34.47102],[-70.85151,-34.471070000000005],[-70.85122000000001,-34.47177],[-70.85085000000001,-34.47186]]]},"id":"LOT-06"},{"type":"Feature","properties":{"name":"LOT-07","number":"07","areaM2":10089,"centroid":[-70.846049,-34.473157]},"geometry":{"type":"Polygon","coordinates":[[[-70.84651000000001,-34.47354],[-70.84641,-34.473130000000005],[-70.84631,-34.472730000000006],[-70.84627,-34.472730000000006],[-70.84625000000001,-34.47271],[-70.84516,-34.47278],[-70.84527,-34.473200000000006],[-70.84537,-34.47363],[-70.84646000000001,-34.47357],[-70.84648,-34.47355],[-70.84651000000001,-34.47354]]]},"id":"LOT-07"},{"type":"Feature","properties":{"name":"LOT-08","number":"08","areaM2":7127,"centroid":[-70.849754,-34.473366]},"geometry":{"type":"Polygon","coordinates":[[[-70.84904,-34.473060000000004],[-70.84915000000001,-34.4737],[-70.84982000000001,-34.47364],[-70.85018000000001,-34.473620000000004],[-70.85018000000001,-34.473600000000005],[-70.85013000000001,-34.47296],[-70.84978000000001,-34.47298],[-70.84904,-34.473060000000004]]]},"id":"LOT-08"},{"type":"Feature","properties":{"name":"LOT-09","number":"09","areaM2":105499,"centroid":[-70.84387,-34.473412]},"geometry":{"type":"Polygon","coordinates":[[[-70.84438,-34.47518],[-70.84458000000001,-34.475190000000005],[-70.84517000000001,-34.475260000000006],[-70.84568,-34.47532],[-70.84571000000001,-34.475260000000006],[-70.84577,-34.47522],[-70.84553000000001,-34.474540000000005],[-70.84549000000001,-34.474360000000004],[-70.84539000000001,-34.473980000000005],[-70.84530000000001,-34.47359],[-70.8452,-34.47321],[-70.84511,-34.472820000000006],[-70.84501,-34.47243],[-70.84490000000001,-34.47196],[-70.84479,-34.47153],[-70.84468000000001,-34.47106],[-70.84461,-34.47104],[-70.84457,-34.471000000000004],[-70.84349,-34.471120000000006],[-70.84234000000001,-34.47124],[-70.84233,-34.47129],[-70.84228,-34.47133],[-70.84232,-34.471410000000006],[-70.84234000000001,-34.47149],[-70.84238,-34.47169],[-70.84244000000001,-34.47198],[-70.84249000000001,-34.472260000000006],[-70.84254,-34.472530000000006],[-70.84259,-34.472820000000006],[-70.84265,-34.47314],[-70.84303,-34.47509],[-70.84303,-34.475100000000005],[-70.84304,-34.47511],[-70.84305,-34.475120000000004],[-70.84306000000001,-34.475120000000004],[-70.84307000000001,-34.475120000000004],[-70.84320000000001,-34.47513],[-70.84346000000001,-34.47514],[-70.84375,-34.47515],[-70.84405000000001,-34.47516],[-70.84438,-34.47518]]]},"id":"LOT-09"},{"type":"Feature","properties":{"name":"LOT-10","number":"10","areaM2":6286,"centroid":[-70.837752,-34.474992]},"geometry":{"type":"Polygon","coordinates":[[[-70.83708,-34.47531],[-70.83838,-34.47511],[-70.83834,-34.47496],[-70.83816,-34.47469],[-70.83680000000001,-34.47489],[-70.83708,-34.47531]]]},"id":"LOT-10"},{"type":"Feature","properties":{"name":"LOT-11","number":"11","areaM2":5998,"centroid":[-70.8378,-34.475428]},"geometry":{"type":"Polygon","coordinates":[[[-70.83723,-34.47574],[-70.83851,-34.475550000000005],[-70.83838,-34.47511],[-70.83708,-34.47531],[-70.83723,-34.47574]]]},"id":"LOT-11"},{"type":"Feature","properties":{"name":"LOT-12","number":"12","areaM2":18545,"centroid":[-70.8382,-34.4772]},"geometry":{"type":"Polygon","coordinates":[[[-70.83760000000001,-34.478],[-70.83889,-34.47782],[-70.83883,-34.47728],[-70.83890000000001,-34.47686],[-70.83877000000001,-34.47643],[-70.83749,-34.476620000000004],[-70.83756000000001,-34.477070000000005],[-70.83756000000001,-34.477520000000005],[-70.83760000000001,-34.478]]]},"id":"LOT-12"},{"type":"Feature","properties":{"name":"LOT-13","number":"13","areaM2":6470,"centroid":[-70.83841,-34.478566]},"geometry":{"type":"Polygon","coordinates":[[[-70.83774000000001,-34.478910000000006],[-70.83895000000001,-34.47874],[-70.83891000000001,-34.478480000000005],[-70.83892,-34.47824],[-70.83753,-34.478460000000005],[-70.83774000000001,-34.478910000000006]]]},"id":"LOT-13"},{"type":"Feature","properties":{"name":"LOT-14","number":"14","areaM2":8107,"centroid":[-70.842322,-34.48113]},"geometry":{"type":"Polygon","coordinates":[[[-70.8426,-34.48152],[-70.84259,-34.481480000000005],[-70.84258000000001,-34.48134],[-70.84256,-34.481210000000004],[-70.84255,-34.481080000000006],[-70.84252000000001,-34.48086],[-70.8425,-34.480650000000004],[-70.84201,-34.480720000000005],[-70.84154000000001,-34.480790000000006],[-70.84177000000001,-34.48165],[-70.8426,-34.48152]]]},"id":"LOT-14"},{"type":"Feature","properties":{"name":"LOT-15","number":"15","areaM2":13747,"centroid":[-70.840935,-34.48133]},"geometry":{"type":"Polygon","coordinates":[[[-70.84154000000001,-34.480790000000006],[-70.84009,-34.480970000000006],[-70.84034000000001,-34.481910000000006],[-70.84177000000001,-34.48165],[-70.84154000000001,-34.480790000000006]]]},"id":"LOT-15"},{"type":"Feature","properties":{"name":"LOT-16","number":"16","areaM2":9353,"centroid":[-70.839484,-34.481541]},"geometry":{"type":"Polygon","coordinates":[[[-70.83914,-34.4818],[-70.83940000000001,-34.48209],[-70.84034000000001,-34.481910000000006],[-70.84009,-34.480970000000006],[-70.83946,-34.48105],[-70.83939000000001,-34.48116],[-70.83935000000001,-34.48142],[-70.83932,-34.48151],[-70.83919,-34.481730000000006],[-70.83916,-34.481770000000004],[-70.83914,-34.4818]]]},"id":"LOT-16"},{"type":"Feature","properties":{"name":"LOT-17","number":"17","areaM2":21048,"centroid":[-70.838681,-34.481579]},"geometry":{"type":"Polygon","coordinates":[[[-70.83795,-34.48174],[-70.83819000000001,-34.48239],[-70.83835,-34.48237],[-70.83851,-34.48232],[-70.83865,-34.48228],[-70.83881000000001,-34.48223],[-70.83890000000001,-34.48221],[-70.83897,-34.48219],[-70.8391,-34.482150000000004],[-70.83932,-34.4821],[-70.83928,-34.48207],[-70.83906,-34.481790000000004],[-70.83913000000001,-34.481700000000004],[-70.83925,-34.481500000000004],[-70.83929,-34.48142],[-70.83930000000001,-34.48133],[-70.83931000000001,-34.48129],[-70.83934,-34.48113],[-70.83945,-34.481],[-70.83942,-34.48089],[-70.83946,-34.48058],[-70.83832000000001,-34.4806],[-70.83835,-34.48075],[-70.83838,-34.48086],[-70.83842,-34.48104],[-70.83844,-34.48109],[-70.83847,-34.48136],[-70.83847,-34.48158],[-70.83849000000001,-34.481660000000005],[-70.83853,-34.481680000000004],[-70.83856,-34.48171],[-70.83857,-34.481750000000005],[-70.83855000000001,-34.481790000000004],[-70.83851,-34.481820000000006],[-70.83846000000001,-34.48183],[-70.83841000000001,-34.48181],[-70.83838,-34.48178],[-70.83837000000001,-34.48174],[-70.83839,-34.481700000000004],[-70.83842,-34.48167],[-70.83840000000001,-34.48158],[-70.83841000000001,-34.481370000000005],[-70.83837000000001,-34.481100000000005],[-70.83836000000001,-34.48104],[-70.83757,-34.48107],[-70.83795,-34.48174]]]},"id":"LOT-17"}]}